ORBCOMM-X               
1 21576U 91050C   25177.73650746  .00000211  00000+0  75444-4 0  9997
2 21576  98.3433 244.1412 0004361 142.7982 217.3511 14.43268609783492
ORBCOMM FM01            
1 23545U 95017A   25177.79904396  .00003519  00000+0  37157-3 0  9993
2 23545  69.9634  50.1656 0005349 280.5474  79.5078 14.90155311613941
ORBCOMM FM02            
1 23546U 95017B   25177.73615698  .00004987  00000+0  51142-3 0  9992
2 23546  69.9652  69.6835 0006701 283.7442  76.2967 14.91033458613588
ORBCOMM FM08            
1 25112U 97084A   25177.37051572  .00000843  00000+0  27574-3 0  9993
2 25112  45.0150 323.7801 0006130 281.4924  78.5239 14.45833439442707
ORBCOMM FM10            
1 25113U 97084B   25177.76761949  .00000782  00000+0  25987-3 0  9991
2 25113  45.0164 324.2711 0005349 247.5509 112.4776 14.45621949442910
ORBCOMM FM12            
1 25115U 97084D   25177.80528255  .00000768  00000+0  25708-3 0  9994
2 25115  45.0157 324.4897 0005194 246.0831 113.9476 14.45392928442668
